ONEWEB-0558             
1 56059U 23043P   26191.53149832  .00000031  00000+0  44114-4 0  9992
2 56059  87.9244 239.3333 0002389  97.8283 262.3122 13.21825569161329
ONEWEB-0559             
1 56060U 23043Q   26191.14123297 -.00000047  00000+0 -14480-3 0  9999
2 56060  87.9238 239.4062 0002227 101.6004 258.5380 13.21824602161285
ONEWEB-0566             
1 56061U 23043R   26191.13450616  .00000020  00000+0  17210-4 0  9991
2 56061  87.9237 239.4055 0002268 104.1599 255.9787 13.21823919161269
ONEWEB-0568             
1 56062U 23043S   26190.50604250  .00000009  00000+0 -99192-5 0  9995
2 56062  87.9086 224.3381 0002198  87.4360 272.7023 13.16596015161918
ONEWEB-0574             
1 56063U 23043T   26191.12779804  .00000099  00000+0  20905-3 0  9995
2 56063  87.9234 239.4116 0001895  92.0090 268.1261 13.21825100161304
ONEWEB-0575             
1 56064U 23043U   26191.03168183  .00000010  00000+0 -66419-5 0  9994
2 56064  87.9079 224.2294 0001841  83.3139 276.8202 13.16595606161972
ONEWEB-0576             
1 56065U 23043V   26191.08867395  .00000059  00000+0  12143-3 0  9996
2 56065  87.9088 224.2265 0001908  91.5076 268.6273 13.16595228161973
ONEWEB-0577             
1 56066U 23043W   26191.32300704  .00000064  00000+0  13326-3 0  9990
2 56066  87.9083 224.1782 0001453  78.3005 281.8289 13.16595424162032
ONEWEB-0578             
1 56067U 23043X   26191.11433389 -.00005763  00000+0 -13989-1 0  9990
2 56067  87.9240 239.4105 0002340  87.2771 272.8631 13.21853938161269
ONEWEB-0579             
1 56068U 23043Y   26191.10590998  .00000014  00000+0  20951-5 0  9993
2 56068  87.9243 239.4105 0002025 104.7533 255.3825 13.21827695161277
ONEWEB-0581             
1 56069U 23043Z   26191.32933778 -.00000007  00000+0 -52156-4 0  9990
2 56069  87.9078 224.1882 0001566  85.8371 274.2939 13.16594656162005
ONEWEB-0609             
1 56070U 23043AA  26191.53097677  .00000022  00000+0  24814-4 0  9999
2 56070  87.8985 254.5608 0002162  99.3540 260.7834 13.15547239159506
ONEWEB-0613             
1 56071U 23043AB  26191.14831855 -.00000035  00000+0 -12713-3 0  9991
2 56071  87.8992 254.6490 0002103 103.6888 256.4477 13.15547322159456
ONEWEB-0630             
1 56072U 23043AC  26191.14356456 -.00000068  00000+0 -21444-3 0  9998
2 56072  87.8996 254.6242 0002143 105.9938 254.1429 13.15549685159446
ONEWEB-0632             
1 56073U 23043AD  26191.13881541 -.00000066  00000+0 -20949-3 0  9993
2 56073  87.8989 254.6411 0001916  97.8341 262.3007 13.15547772159449
ONEWEB-0633             
1 56074U 23043AE  26191.13247724 -.00000027  00000+0 -10666-3 0  9995
2 56074  87.8990 254.6191 0002265 107.0577 253.0802 13.15548028159423
